TROLL                   
1 62658U 25009BB  26068.22522958  .00013174  00000+0  48220-3 0  9994
2 62658  97.3932 150.7169 0001816  59.1850 300.9568 15.28164315118170
STARLINK-35877          
1 67049U 25294V   26068.28054183  .00024984  00000+0  91412-3 0  9997
2 67049  43.0030  40.6399 0001878 255.1594 104.9050 15.27588364 14737
